# Data for our solar system.

"Mercury" "Sol"
{
	Texture "mercury.*"
	Radius 2440

	CustomOrbit "vsop87-mercury"
	EllipticalOrbit {
	Period            0.2408
	SemiMajorAxis     0.3871
	Eccentricity      0.2056
	Inclination       7.0049
	AscendingNode    48.33167
	LongOfPericenter 77.456
        MeanLongitude   252.251
	}

	UniformRotation
	{
	    Period 1407.509405
	    Inclination         7.01
	    AscendingNode 48.42
	    MeridianAngle 291.20
	}

	Albedo            0.06
}

AltSurface "limit of knowledge" "Sol/Mercury"
{
	Texture "mercury.*"
	OverlayTexture "mercury-lok-mask.png"
}

"Venus" "Sol"
{
	Texture "venussurface.*"
	# BumpMap "venusbump.*"
	HazeColor [ 0.5 0.35 0.2 ]
	HazeDensity 0.35
	Radius 6052

	Atmosphere {
		Height 60
		Lower [ 0.8 0.8 0.5 ]
		Upper [ 0.6 0.6 0.6 ]
		Sky [ 0.8 0.8 0.5 ]
		CloudMap "venus.jpg"
		CloudHeight 50
		CloudSpeed  90
	}

	CustomOrbit "vsop87-venus"
	EllipticalOrbit {
		Period            0.6152
		SemiMajorAxis     0.7233
		Eccentricity      0.0068
		Inclination       3.3947
		AscendingNode     76.681
		LongOfPericenter 131.533
	        MeanLongitude    181.979
	}

	UniformRotation
	{
	Period  5832.479839
	Inclination       178.78
	AscendingNode 300.22
	MeridianAngle       137.45
	}

	Albedo            0.77
}

"Earth" "Sol"
{
	Texture "earth.*"
	NightTexture "earthnight.*"
	
	# SpecularTexture "earth-spec.*"
	Color [ 0.85 0.85 1.0 ]
	SpecularColor [ 0.8 0.8 0.85 ]
	SpecularPower 25.0
	HazeColor [ 1 1 1 ]
	HazeDensity 0.3
	Radius 6378.140  # equatorial
	# Oblateness 0.0034

	Atmosphere {
		Height 60
		Lower [ 0.43 0.52 0.65 ]
		Upper [ 0.26 0.47 0.84 ]
		Sky [ 0.40 0.6 1.0 ]
		Sunset [ 1.0 0.6 0.2 ]
		CloudHeight 7
		CloudSpeed 65
		CloudMap "earth-clouds.*"

		Mie 0.001
		MieAsymmetry -0.25
		Rayleigh [ 0.001 0.0025 0.006 ]
		MieScaleHeight 12
	}

	CustomOrbit "vsop87-earth"
	EllipticalOrbit {	
		Period            1.0000
		SemiMajorAxis     1.0000
		Eccentricity      0.0167
		Inclination       0.0001
		AscendingNode   348.739
		LongOfPericenter 102.947
	        MeanLongitude   100.464
	}

#       Very approximate precession for Earth
#	PrecessingRotation
#	{
#		Period           23.9344694
#		Inclination     -23.4392911
#		Offset          280.5    # offset at default epoch J2000
#		PrecessionPeriod 26000
#	}

	UniformRotation
	{
	Period              23.9344694
	Inclination        -23.4392911
	MeridianAngle      280.5    # offset at default epoch J2000
	}

	Albedo            0.30
}


"Moon" "Sol/Earth"
{
	Texture "moon.*"
	BumpMap "moonbump.*"
	BumpHeight 3.5
	Radius   1737.53
	# Oblateness 0.002

	InfoURL "http://www.nineplanets.org/luna.html"

	CustomOrbit "moon"
	EllipticalOrbit {
		Period           27.321661
		SemiMajorAxis    384400
		Eccentricity     0.054900
		Inclination      5.15
	}

	OrbitFrame {
		EquatorJ2000 { Center "Sol/Earth" }
	}

	UniformRotation
	{
	    Inclination        23.45
            AscendingNode       0.0
            MeridianAngle      38
	}

	LunarLambert 1.0

	Albedo           0.12
}


"Mars" "Sol"
{
	Texture "mars.*"
	# Texture "mars8k.dds"
	BumpMap "marsbump.*"
	BumpHeight 2.5
	
	Color   [ 1 0.75 0.7 ]
	HazeColor [ 1 1 1 ]
	HazeDensity 0.45
	Radius 3396 # equatorial
	# Oblateness 0.0069

	Atmosphere {
		Height 30
		Lower [ 0.8 0.6 0.6 ]
		Upper [ 0.7 0.3 0.3 ]
		Sky [ 0.83 0.75 0.65 ]
                Sunset [ 0.7 0.7 0.8 ] 
                # Slightly bluish sunset, as seen in true color pictures
                # from Pathfinder

		Mie 0.0024
		MieAsymmetry -0.15
		Rayleigh [ 0.0010 0.0006 0.0003 ]
		Absorption [ 0 0 0 ]
		MieScaleHeight 20
	}

	CustomOrbit "vsop87-mars"
	EllipticalOrbit
	{
	Period            1.8809
	SemiMajorAxis     1.5237
	Eccentricity      0.0934
	Inclination       1.8506
	AscendingNode     49.479
	LongOfPericenter 336.041
        MeanLongitude    355.453
	}

	UniformRotation
	{
	Period    	 24.622962
	Inclination         	 26.72
	AscendingNode	 82.91
	MeridianAngle    	136.005
	}

	Albedo            0.150
}


"Phobos" "Sol/Mars"
{
	Mesh "phobos.cmod"
	Texture "phobos.*"
	Radius 13.0 # maximum semi-axis
	MeshCenter [ -0.233 -0.156 -0.168 ]

	EllipticalOrbit
	{
	Period         0.318910
	SemiMajorAxis  9377.2
	Eccentricity   0.0151
	Inclination    1.075
	AscendingNode  128.694   # J2000
	ArgOfPericenter 213.804  # J2000
	MeanAnomaly    191.771   # J2000
	}

	UniformRotation
	{
	Inclination		  0.0
	MeridianAngle	      	354.2
	}

	Albedo         0.07
}

"Deimos" "Sol/Mars"
{
	Mesh "deimos.cmod"
	Texture "deimos.*"
	Radius 7.9 # maximum semi-axis
	MeshCenter [ -0.299 -0.284 0.369 ]

	EllipticalOrbit
	{
	Period            1.262441
	SemiMajorAxis     23463.2
	Eccentricity      0.00033
	Inclination       1.793
	AscendingNode    25.229
	ArgOfPericenter 208.213 
	MeanAnomaly     344.128
	}

	UniformRotation
	{
	Inclination		  0.9
	AscendingNode	183.0
	MeridianAngle		214.7
	}

	Albedo         0.08
}

"Jupiter" "Sol"
{
	Texture "jupiter.*"
	HazeColor [ 0.4 0.45 0.5 ]
	HazeDensity 0.3

	Radius 71492 # equatorial
	Oblateness 0.0649

	CustomOrbit "vsop87-jupiter"
	EllipticalOrbit
	{
	Period           11.8622
	SemiMajorAxis     5.2034
	Eccentricity      0.0484
	Inclination       1.3053
	AscendingNode   100.556
	LongOfPericenter 14.7539
        MeanLongitude    34.404
	}

	Atmosphere {
		Height 300
		Lower [ 0.7 0.6 0.5 ]
		Upper [ 0.5 0.45 0.4 ]
		Sky [ 0.8 0.8 0.5 ]
                Sunset [ 1.0 0.6 0.2 ]
	}

	UniformRotation
	{
	Period		9.927953 # System II (for GRS)
	# Period	9.92425  # System III (radio emissions)
	Inclination	2.222461 # 1.82246 # 2.22246
	AscendingNode	-22.203  # -1.87785 # -22.203
	MeridianAngle	342      # for correct location of GRS 
	                         # (equal to 461 minus current W longitude of GRS)
	# MeridianAngle	305.40   # correct System III prime meridian
	}

	Albedo 0.51
}


"Amalthea" "Sol/Jupiter"
{
	Texture "amalthea.*"
	Color   [ 0.63 0.45 0.35 ]
	Mesh "amalthea.cmod"
	Radius    134 # maximum semi-axis
	MeshCenter [ -13.616 -0.448 -4.436 ]

	EllipticalOrbit
	{
	Epoch      2452583.763194445 # 2002 Nov 5 06:19UT (Galileo encounter)
	Period          0.498179     # mean
	SemiMajorAxis   181994.78    # at epoch
	Eccentricity    0.0045045    # at epoch 
	Inclination     0.384285     # at epoch
	AscendingNode   220.288958   # at epoch
	ArgOfPericenter 301.622765   # at epoch
	MeanAnomaly     315.352094   # at epoch
	}

	UniformRotation
	{
	Inclination		  0.0
	MeridianAngle		252.1
	}

	Albedo          0.06
}

"Io" "Sol/Jupiter"
{
	Texture "io.*"
	Radius   1821.6

	CustomOrbit "io"
	EllipticalOrbit
	{
	Epoch 2443000.00038375
	Period         1.769138
	SemiMajorAxis  421600
	Eccentricity   0.0041
	Inclination    0.040
	AscendingNode    312.981
	LongOfPericenter  97.735
	MeanLongitude    106.724
	}

	UniformRotation
	{
	Inclination		  0.0
	MeridianAngle		220.8
	}

	Albedo         0.61
}

AltSurface "limit of knowledge" "Sol/Jupiter/Io"
{
	Texture "io.*"
	OverlayTexture "io-lok-mask.png"
}

"Europa" "Sol/Jupiter"
{
	Texture "europa.*"
	Radius   1560.8

	CustomOrbit "europa"
	EllipticalOrbit
	{
	Epoch 2443000.00038375
	Period         3.551810
	SemiMajorAxis  670900
	Eccentricity   0.0101
	Inclination    0.470
	AscendingNode    101.087
	LongOfPericenter 155.512
	MeanLongitude    176.377
	}

	UniformRotation
	{
	Inclination		  0.0
	MeridianAngle 		 56.2
	}

	Albedo         0.64
}

AltSurface "limit of knowledge" "Sol/Jupiter/Europa"
{
	Texture "europa.*"
	OverlayTexture "europa-lok-mask.png"
}

"Ganymede" "Sol/Jupiter"
{
	Texture "ganymede.*"
	Radius   2631.2

	CustomOrbit "ganymede"
	EllipticalOrbit
	{
	Epoch 2443000.00038375
	Period         7.154553
	SemiMajorAxis  1070000
	Eccentricity   0.0015
	Inclination    0.195
	AscendingNode    119.841
	LongOfPericenter 188.831
	MeanLongitude    121.206
	}

	UniformRotation
	{
	Inclination		  0.1
	AscendingNode	161.6
	MeridianAngle		262.1
	}

	Albedo         0.42
}

AltSurface "limit of knowledge" "Sol/Jupiter/Ganymede"
{
	Texture "ganymede.*"
	OverlayTexture "ganymede-lok-mask.png"
}

"Callisto" "Sol/Jupiter"
{
	Texture "callisto.*"
	Radius   2410.3

	CustomOrbit "callisto"
	EllipticalOrbit
	{
	Epoch 2443000.00038375
	Period        16.689018
	SemiMajorAxis  1883000
	Eccentricity   0.007
	Inclination    0.281
	AscendingNode    323.265
	LongOfPericenter 335.933
	MeanLongitude     85.091
	}

	UniformRotation
	{
	Inclination		  0.4
	AscendingNode	160.6
	MeridianAngle		120.1
	}

	Albedo         0.20
}

AltSurface "limit of knowledge" "Sol/Jupiter/Callisto"
{
	Texture "callisto.*"
	OverlayTexture "callisto-lok-mask.png"
}

"Saturn" "Sol"
{
	Texture "saturn.*"
	Color [ 1.0 1.0 0.85 ]
	HazeColor [ 0.0 0.0 1 ]
	HazeDensity 0.25
	Radius 60268 # equatorial
	Oblateness 0.0980

	CustomOrbit "vsop87-saturn"
	EllipticalOrbit
	{
	Period           29.4577
	SemiMajorAxis     9.5371
	Eccentricity      0.0542
	Inclination       2.4845
	AscendingNode   113.715
	LongOfPericenter 92.432
        MeanLongitude    49.944
	}

	Atmosphere {
		Height 300
		Lower [ 0.8 0.75 0.65 ]
		Upper [ 0.6 0.55 0.45 ]
		Sky [ 0.8 0.8 0.5 ]
	}

	UniformRotation
	{	
	Period        10.65622 # System III (magnetic field)
	Inclination             28.049   # 28.052   # old value: 26.73
	AscendingNode 169.530   # 168.8112 # 169.53
        MeridianAngle       358.922   # correct System III prime meridian
	}

	Albedo            0.50

	Rings {
		Inner   74500  # includes some ringlets inside edge of C ring at 74660
		Outer  140220
		Texture "saturn-rings.png"
	}
}

"Prometheus" "Sol/Saturn"
{
	Texture	 	"prometheus.*"
	Mesh		"prometheus.cmod"
	Radius    74 # maximum semi-axis
	MeshCenter [ 0.75 -2.68 1.064 ]

	EllipticalOrbit
	{
	Epoch		2453005.5   # 2004 Jan 1 00:00UT
	Period		0.6130
	SemiMajorAxis	139380
	Eccentricity	0.0023
	Inclination	0.0056
	AscendingNode	226.1099
	LongOfPericenter 23.3280 
	MeanLongitude	266.2144
	}

	UniformRotation
	{
	Epoch		2453005.5   # 2004 Jan 1 00:00UT
	MeridianAngle  	86
	}

	Albedo 0.6
}

